OBJECT_NAME,OBJECT_ID,EPOCH,MEAN_MOTION,ECCENTRICITY,INCLINATION,RA_OF_ASC_NODE,ARG_OF_PERICENTER,MEAN_ANOMALY,EPHEMERIS_TYPE,CLASSIFICATION_TYPE,NORAD_CAT_ID,ELEMENT_SET_NO,REV_AT_EPOCH,BSTAR,MEAN_MOTION_DOT,MEAN_MOTION_DDOT
M2 PATHFINDER,2020-037E,2026-07-23T02:07:37.786656,15.04815314,.00122038,97.8144,35.7270,37.2846,322.9225,0,U,45727,999,33089,.17405258E-3,.2397E-4,0
NETSAT-4,2020-068U,2026-07-23T00:26:47.663808,15.44960693,.00057101,97.8610,215.1699,167.1135,193.0259,0,U,46504,999,32130,.44655502E-3,.20969E-3,0
NETSAT-3,2020-068V,2026-07-23T19:54:36.278784,15.43845567,.0004922,97.8664,214.2198,178.9294,181.1964,0,U,46505,999,32133,.40462E-3,.18276E-3,0
NETSAT-1,2020-068W,2026-07-23T10:39:58.237920,15.35391814,.000312,97.8764,207.6964,217.4832,142.6193,0,U,46506,999,32086,.35865E-3,.12249E-3,0
NETSAT-2,2020-068X,2026-07-23T10:59:17.656800,15.47450695,.0003425,97.8618,215.6810,177.8424,182.2840,0,U,46507,999,32134,.46178E-3,.23621E-3,0
GREENCUBE (IO-117),2022-080E,2026-07-23T14:28:38.087040,6.42583371,.0009166,70.1385,285.5830,281.8194,78.1437,0,U,53109,999,9440,0,-.3E-7,0
SITRO-AIS 5 (KATYS),2023-091L,2026-07-23T19:53:50.822016,15.30211695,.000978,97.5042,269.0924,340.6113,19.4753,0,U,57176,999,16994,.37808E-3,.10993E-3,0
SITRO-AIS 6 (CHIRKIN),2023-091AC,2026-07-23T19:53:09.960864,15.26558670,.0010282,97.5050,268.0130,345.5080,14.5862,0,U,57192,999,16987,.35158E-3,.9134E-4,0
SITRO-AIS 8 (ANOKHIN),2023-091AD,2026-07-23T20:17:37.756896,15.33032982,.0008683,97.5038,270.8510,334.8542,25.2276,0,U,57193,999,17006,.42248E-3,.13424E-3,0
SITRO-AIS 7 (FARTUSHNIY),2023-091AE,2026-07-23T20:08:46.891104,15.26230646,.0010258,97.5046,267.8291,346.7797,13.3171,0,U,57194,999,16986,.37235E-3,.9583E-4,0
SITRO-AIS 10 (BURDAEV),2023-091AK,2026-07-23T20:21:47.441664,15.39887230,.0004374,97.5063,276.2977,300.8579,59.2236,0,U,57199,999,17040,.47613E-3,.18869E-3,0
SITRO-AIS 9 (SHCHUKIN),2023-091AM,2026-07-23T19:43:32.383776,15.39363022,.0004629,97.5061,275.9708,302.1159,57.9636,0,U,57201,999,17038,.48119E-3,.18746E-3,0
SITRO-AIS 12 (SMIRENNIY),2023-091AQ,2026-07-23T20:53:33.126720,15.39664119,.0004325,97.5075,276.5111,292.9126,67.1662,0,U,57204,999,17041,.49422E-3,.19447E-3,0
SITRO-AIS 11 (SHEFFER),2023-091AU,2026-07-23T19:24:18.847008,15.40112816,.0004255,97.5072,276.7178,292.2639,67.8155,0,U,57208,999,17042,.485E-3,.19366E-3,0
SITRO-AIS 25,2024-039R,2026-07-23T21:20:12.856416,14.93682918,.0143678,95.3885,260.3121,198.8418,160.7460,0,U,59066,999,13020,.33298E-3,.4282E-4,0
SITRO-AIS 26,2024-039S,2026-07-23T19:53:01.067712,14.93473016,.0143979,95.3887,260.1604,199.6542,159.9102,0,U,59067,999,13018,.35322E-3,.4522E-4,0
SITRO-AIS 27,2024-039T,2026-07-23T20:31:43.338144,14.93904773,.0143022,95.3896,260.4679,198.0643,161.5473,0,U,59068,999,13021,.32687E-3,.4221E-4,0
SITRO-AIS 28,2024-039U,2026-07-23T19:58:03.790848,14.93933606,.0142965,95.3891,260.5009,197.9777,161.6365,0,U,59071,999,13021,.36465E-3,.4716E-4,0
GRBBETA,2024-128C,2026-07-23T02:56:40.615584,15.06847809,.00359982,61.9898,90.1657,142.3680,217.9942,0,U,60237,999,11168,.22788353E-3,.3245E-4,0
OOV-CUBE (TUBSAT-30),2024-128F,2026-07-23T04:25:49.884960,15.02898344,.00400777,61.9942,100.0399,141.8645,218.5295,0,U,60240,999,11152,.14199344E-3,.1732E-4,0
ROBUSTA-3A (MEDITERRANEE),2024-128J,2026-07-23T15:26:25.039104,15.12077936,.0036837,61.9864,79.2829,135.8014,224.6035,0,U,60243,999,11193,.43958E-3,.7507E-4,0
LASARSAT,2024-247Q,2026-07-23T07:40:52.896288,15.48476660,.0008725,44.9747,58.8369,216.7306,143.2987,0,U,62391,999,8891,.67064E-3,.36309E-3,0
CROCUBE,2024-247T,2026-07-22T22:44:56.393952,15.50668241,.0008728,44.9710,57.6351,220.4792,139.5451,0,U,62394,999,8889,.81914862E-3,.48107E-3,0
FORESAIL-1 PRIME,2025-276DS,2026-07-23T15:02:03.019776,15.18989877,.0002166,97.4185,277.2340,23.5404,336.5930,0,U,66778,999,3593,.21108E-3,.4348E-4,0
KNACKSAT-2,1998-067XZ,2026-07-23T10:39:30.699648,15.63109513,.0007497,51.6273,111.6691,354.9110,5.1807,0,U,67683,999,2594,.64569E-3,.6001E-3,0
