M2 PATHFINDER           
1 45727U 20037E   26204.08863179  .00002397  00000+0  17405-3 0  9993
2 45727  97.8144  35.7270 0012203  37.2846 322.9225 15.04815314330892
NETSAT-4                
1 46504U 20068U   26204.01860722  .00020969  00000+0  44656-3 0  9998
2 46504  97.8610 215.1699 0005710 167.1135 193.0259 15.44960693321307
NETSAT-3                
1 46505U 20068V   26204.82958656  .00018276  00000+0  40462-3 0  9991
2 46505  97.8664 214.2198 0004922 178.9294 181.1964 15.43845567321336
NETSAT-1                
1 46506U 20068W   26204.44442405  .00012249  00000+0  35865-3 0  9995
2 46506  97.8764 207.6964 0003120 217.4832 142.6193 15.35391814320866
NETSAT-2                
1 46507U 20068X   26204.45784325  .00023621  00000+0  46178-3 0  9992
2 46507  97.8618 215.6810 0003425 177.8424 182.2840 15.47450695321347
GREENCUBE (IO-117)      
1 53109U 22080E   26204.60321860 -.00000003  00000+0  00000+0 0  9992
2 53109  70.1385 285.5830 0009166 281.8194  78.1437  6.42583371 94406
SITRO-AIS 5 (KATYS)     
1 57176U 23091L   26204.82906044  .00010993  00000+0  37808-3 0  9998
2 57176  97.5042 269.0924 0009780 340.6113  19.4753 15.30211695169940
SITRO-AIS 6 (CHIRKIN)   
1 57192U 23091AC  26204.82858751  .00009134  00000+0  35158-3 0  9998
2 57192  97.5050 268.0130 0010282 345.5080  14.5862 15.26558670169872
SITRO-AIS 8 (ANOKHIN)   
1 57193U 23091AD  26204.84557589  .00013424  00000+0  42248-3 0  9991
2 57193  97.5038 270.8510 0008683 334.8542  25.2276 15.33032982170060
SITRO-AIS 7 (FARTUSHNIY)
1 57194U 23091AE  26204.83943161  .00009583  00000+0  37235-3 0  9997
2 57194  97.5046 267.8291 0010258 346.7797  13.3171 15.26230646169864
SITRO-AIS 10 (BURDAEV)  
1 57199U 23091AK  26204.84846576  .00018869  00000+0  47613-3 0  9993
2 57199  97.5063 276.2977 0004374 300.8579  59.2236 15.39887230170408
SITRO-AIS 9 (SHCHUKIN)  
1 57201U 23091AM  26204.82190259  .00018746  00000+0  48119-3 0  9991
2 57201  97.5061 275.9708 0004629 302.1159  57.9636 15.39363022170384
SITRO-AIS 12 (SMIRENNIY)
1 57204U 23091AQ  26204.87052230  .00019447  00000+0  49422-3 0  9992
2 57204  97.5075 276.5111 0004325 292.9126  67.1662 15.39664119170417
SITRO-AIS 11 (SHEFFER)  
1 57208U 23091AU  26204.80855147  .00019366  00000+0  48500-3 0  9993
2 57208  97.5072 276.7178 0004255 292.2639  67.8155 15.40112816170426
SITRO-AIS 25            
1 59066U 24039R   26204.88903769  .00004282  00000+0  33298-3 0  9991
2 59066  95.3885 260.3121 0143678 198.8418 160.7460 14.93682918130200
SITRO-AIS 26            
1 59067U 24039S   26204.82848458  .00004522  00000+0  35322-3 0  9996
2 59067  95.3887 260.1604 0143979 199.6542 159.9102 14.93473016130185
SITRO-AIS 27            
1 59068U 24039T   26204.85536271  .00004221  00000+0  32687-3 0  9994
2 59068  95.3896 260.4679 0143022 198.0643 161.5473 14.93904773130218
SITRO-AIS 28            
1 59071U 24039U   26204.83198832  .00004716  00000+0  36465-3 0  9990
2 59071  95.3891 260.5009 0142965 197.9777 161.6365 14.93933606130214
GRBBETA                 
1 60237U 24128C   26204.12269231  .00003245  00000+0  22788-3 0  9998
2 60237  61.9898  90.1657 0035998 142.3680 217.9942 15.06847809111686
OOV-CUBE (TUBSAT-30)    
1 60240U 24128F   26204.18460515  .00001732  00000+0  14199-3 0  9992
2 60240  61.9942 100.0399 0040077 141.8645 218.5295 15.02898344111520
ROBUSTA-3A (MEDITERRAN*)
1 60243U 24128J   26204.64334536  .00007507  00000+0  43958-3 0  9990
2 60243  61.9864  79.2829 0036837 135.8014 224.6035 15.12077936111935
LASARSAT                
1 62391U 24247Q   26204.32005667  .00036309  00000+0  67064-3 0  9999
2 62391  44.9747  58.8369 0008725 216.7306 143.2987 15.48476660 88911
CROCUBE                 
1 62394U 24247T   26203.94787493  .00048107  00000+0  81915-3 0  9993
2 62394  44.9710  57.6351 0008728 220.4792 139.5451 15.50668241 88898
FORESAIL-1 PRIME        
1 66778U 25276DS  26204.62642384  .00004348  00000+0  21108-3 0  9998
2 66778  97.4185 277.2340 0002166  23.5404 336.5930 15.18989877 35930
KNACKSAT-2              
1 67683U 98067XZ  26204.44410532  .00060010  00000+0  64569-3 0  9996
2 67683  51.6273 111.6691 0007497 354.9110   5.1807 15.63109513 25946
